start=new Date('2022-08-26T00:00:00.000Z').valueOf();
sats=[{"MEAN_MOTION_DDOT":"0.0000000000000","RCS_SIZE":"LARGE","BSTAR":"0.00038167000000","MEAN_MOTION_DOT":"0.00005404","EPHEMERIS_TYPE":"0","MEAN_ANOMALY":"297.1863","OBJECT_ID":"2021-040AQ","CLASSIFICATION_TYPE":"U","OBJECT_NAME":"STARLINK-2687","MEAN_ELEMENT_THEORY":"SGP4","PERIOD":"95.594","NORAD_CAT_ID":"48466","LAUNCH_DATE":"2021-05-09","PERIAPSIS":"545.951","SITE":"AFETR","APOAPSIS":"548.615","ECCENTRICITY":"0.00019230","DECAY_DATE":null,"EPOCH":"2022-08-25T17:24:57.071520","ARG_OF_PERICENTER":"62.9322","MEAN_MOTION":"15.06377395","SEMIMAJOR_AXIS":"6925.418","ELEMENT_SET_NO":"999","OBJECT_TYPE":"PAYLOAD","COUNTRY_CODE":"US","TIME_SYSTEM":"UTC","CENTER_NAME":"EARTH","REV_AT_EPOCH":"7304","TLE_LINE2":"2 48466  53.0537 231.4754 0001923  62.9322 297.1863 15.06377395 73044","REF_FRAME":"TEME","RA_OF_ASC_NODE":"231.4754","INCLINATION":"53.0537","TLE_LINE1":"1 48466U 21040AQ  22237.72566055  .00005404  00000-0  38167-3 0  9998","GP_ID":"210981882","FILE":"3547536"},{"TLE_LINE2":"2 48467  53.0543 231.6604 0001717  73.6877 286.4301 15.06403095 71765","REV_AT_EPOCH":"7176","TLE_LINE1":"1 48467U 21040AR  22237.68509686  .00001131  00000-0  94818-4 0  9990","INCLINATION":"53.0543","RA_OF_ASC_NODE":"231.6604","REF_FRAME":"TEME","FILE":"3547674","GP_ID":"211005827","MEAN_MOTION":"15.06403095","EPOCH":"2022-08-25T16:26:32.368704","ARG_OF_PERICENTER":"73.6877","SEMIMAJOR_AXIS":"6925.339","OBJECT_TYPE":"PAYLOAD","COUNTRY_CODE":"US","ELEMENT_SET_NO":"999","CENTER_NAME":"EARTH","TIME_SYSTEM":"UTC","MEAN_ELEMENT_THEORY":"SGP4","OBJECT_NAME":"STARLINK-2659","NORAD_CAT_ID":"48467","PERIOD":"95.592","SITE":"AFETR","PERIAPSIS":"546.015","LAUNCH_DATE":"2021-05-09","DECAY_DATE":null,"ECCENTRICITY":"0.00017170","APOAPSIS":"548.393","RCS_SIZE":"LARGE","MEAN_MOTION_DDOT":"0.0000000000000","EPHEMERIS_TYPE":"0","MEAN_MOTION_DOT":"0.00001131","BSTAR":"0.00009481800000","OBJECT_ID":"2021-040AR","MEAN_ANOMALY":"286.4301","CLASSIFICATION_TYPE":"U"},{"TLE_LINE2":"2 48468  53.0537 233.5344 0001437  68.0797 292.0344 15.06393742 71700","REV_AT_EPOCH":"7170","GP_ID":"210970574","FILE":"3547226","RA_OF_ASC_NODE":"233.5344","INCLINATION":"53.0537","TLE_LINE1":"1 48468U 21040AS  22237.26859148  .00001019  00000-0  87309-4 0  9998","REF_FRAME":"TEME","SEMIMAJOR_AXIS":"6925.368","MEAN_MOTION":"15.06393742","ARG_OF_PERICENTER":"68.0797","EPOCH":"2022-08-25T06:26:46.303872","CENTER_NAME":"EARTH","TIME_SYSTEM":"UTC","OBJECT_TYPE":"PAYLOAD","COUNTRY_CODE":"US","ELEMENT_SET_NO":"999","NORAD_CAT_ID":"48468","PERIOD":"95.593","MEAN_ELEMENT_THEORY":"SGP4","OBJECT_NAME":"STARLINK-2685","APOAPSIS":"548.228","ECCENTRICITY":"0.00014370","DECAY_DATE":null,"SITE":"AFETR","PERIAPSIS":"546.238","LAUNCH_DATE":"2021-05-09","EPHEMERIS_TYPE":"0","BSTAR":"0.00008730900000","MEAN_MOTION_DOT":"0.00001019","RCS_SIZE":"LARGE","MEAN_MOTION_DDOT":"0.0000000000000","CLASSIFICATION_TYPE":"U","MEAN_ANOMALY":"292.0344","OBJECT_ID":"2021-040AS"},{"ARG_OF_PERICENTER":"82.1457","EPOCH":"2022-08-25T06:47:59.272224","MEAN_MOTION":"15.06394615","SEMIMAJOR_AXIS":"6925.365","ELEMENT_SET_NO":"999","COUNTRY_CODE":"US","OBJECT_TYPE":"PAYLOAD","TIME_SYSTEM":"UTC","CENTER_NAME":"EARTH","REV_AT_EPOCH":"7170","TLE_LINE2":"2 48469  53.0531 233.4549 0001357  82.1457 277.9686 15.06394615 71703","REF_FRAME":"TEME","TLE_LINE1":"1 48469U 21040AT  22237.28332491  .00001141  00000-0  95522-4 0  9990","RA_OF_ASC_NODE":"233.4549","INCLINATION":"53.0531","FILE":"3547226","GP_ID":"210971825","MEAN_MOTION_DDOT":"0.0000000000000","RCS_SIZE":"LARGE","BSTAR":"0.00009552200000","MEAN_MOTION_DOT":"0.00001141","EPHEMERIS_TYPE":"0","OBJECT_ID":"2021-040AT","MEAN_ANOMALY":"277.9686","CLASSIFICATION_TYPE":"U","OBJECT_NAME":"STARLINK-2661","MEAN_ELEMENT_THEORY":"SGP4","PERIOD":"95.592","NORAD_CAT_ID":"48469","LAUNCH_DATE":"2021-05-09","PERIAPSIS":"546.290","SITE":"AFETR","DECAY_DATE":null,"APOAPSIS":"548.170","ECCENTRICITY":"0.00013570"},{"RCS_SIZE":"LARGE","MEAN_MOTION_DDOT":"0.0000000000000","EPHEMERIS_TYPE":"0","MEAN_MOTION_DOT":"0.00000908","BSTAR":"0.00007988500000","MEAN_ANOMALY":"299.3018","OBJECT_ID":"2021-040AU","CLASSIFICATION_TYPE":"U","MEAN_ELEMENT_THEORY":"SGP4","OBJECT_NAME":"STARLINK-2675","NORAD_CAT_ID":"48470","PERIOD":"95.592","SITE":"AFETR","PERIAPSIS":"545.971","LAUNCH_DATE":"2021-05-09","ECCENTRICITY":"0.00018180","APOAPSIS":"548.489","DECAY_DATE":null,"MEAN_MOTION":"15.06394513","ARG_OF_PERICENTER":"60.8152","EPOCH":"2022-08-25T11:27:56.360160","SEMIMAJOR_AXIS":"6925.365","OBJECT_TYPE":"PAYLOAD","COUNTRY_CODE":"US","ELEMENT_SET_NO":"999","CENTER_NAME":"EARTH","TIME_SYSTEM":"UTC","TLE_LINE2":"2 48470  53.0540 232.5771 0001818  60.8152 299.3018 15.06394513 71725","REV_AT_EPOCH":"7172","RA_OF_ASC_NODE":"232.5771","INCLINATION":"53.0540","TLE_LINE1":"1 48470U 21040AU  22237.47773565  .00000908  00000-0  79885-4 0  9998","REF_FRAME":"TEME","GP_ID":"210971576","FILE":"3547226"},{"EPOCH":"2022-08-25T11:18:40.898880","ARG_OF_PERICENTER":"66.7263","MEAN_MOTION":"15.06403427","SEMIMAJOR_AXIS":"6925.338","ELEMENT_SET_NO":"999","COUNTRY_CODE":"US","OBJECT_TYPE":"PAYLOAD","TIME_SYSTEM":"UTC","CENTER_NAME":"EARTH","REV_AT_EPOCH":"7172","TLE_LINE2":"2 48471  53.0534 232.6070 0001541  66.7263 293.3888 15.06403427 71727","REF_FRAME":"TEME","INCLINATION":"53.0534","RA_OF_ASC_NODE":"232.6070","TLE_LINE1":"1 48471U 21040AV  22237.47130670  .00000812  00000-0  73423-4 0  9999","GP_ID":"210970324","FILE":"3547226","MEAN_MOTION_DDOT":"0.0000000000000","RCS_SIZE":"LARGE","BSTAR":"0.00007342300000","MEAN_MOTION_DOT":"0.00000812","EPHEMERIS_TYPE":"0","MEAN_ANOMALY":"293.3888","OBJECT_ID":"2021-040AV","CLASSIFICATION_TYPE":"U","OBJECT_NAME":"STARLINK-2684","MEAN_ELEMENT_THEORY":"SGP4","PERIOD":"95.592","NORAD_CAT_ID":"48471","LAUNCH_DATE":"2021-05-09","PERIAPSIS":"546.136","SITE":"AFETR","ECCENTRICITY":"0.00015410","APOAPSIS":"548.270","DECAY_DATE":null},{"TLE_LINE2":"2 48472  53.0536 233.0025 0001547  68.6278 291.4876 15.06397504 71700","REV_AT_EPOCH":"7170","FILE":"3547226","GP_ID":"210971074","TLE_LINE1":"1 48472U 21040AW  22237.38653998  .00001178  00000-0  97984-4 0  9997","RA_OF_ASC_NODE":"233.0025","INCLINATION":"53.0536","REF_FRAME":"TEME","SEMIMAJOR_AXIS":"6925.356","MEAN_MOTION":"15.06397504","ARG_OF_PERICENTER":"68.6278","EPOCH":"2022-08-25T09:16:37.054272","CENTER_NAME":"EARTH","TIME_SYSTEM":"UTC","OBJECT_TYPE":"PAYLOAD","COUNTRY_CODE":"US","ELEMENT_SET_NO":"999","NORAD_CAT_ID":"48472","PERIOD":"95.592","MEAN_ELEMENT_THEORY":"SGP4","OBJECT_NAME":"STARLINK-2722","DECAY_DATE":null,"ECCENTRICITY":"0.00015470","APOAPSIS":"548.293","PERIAPSIS":"546.150","SITE":"AFETR","LAUNCH_DATE":"2021-05-09","EPHEMERIS_TYPE":"0","BSTAR":"0.00009798400000","MEAN_MOTION_DOT":"0.00001178","RCS_SIZE":"LARGE","MEAN_MOTION_DDOT":"0.0000000000000","CLASSIFICATION_TYPE":"U","OBJECT_ID":"2021-040AW","MEAN_ANOMALY":"291.4876"},{"TLE_LINE1":"1 48473U 21040AX  22237.29070409 -.00001841  00000-0 -10478-3 0  9999","RA_OF_ASC_NODE":"233.4127","INCLINATION":"53.0533","REF_FRAME":"TEME","FILE":"3547226","GP_ID":"210971326","TLE_LINE2":"2 48473  53.0533 233.4127 0001809  65.4589 294.6588 15.06386466 71694","REV_AT_EPOCH":"7169","COUNTRY_CODE":"US","OBJECT_TYPE":"PAYLOAD","ELEMENT_SET_NO":"999","CENTER_NAME":"EARTH","TIME_SYSTEM":"UTC","MEAN_MOTION":"15.06386466","ARG_OF_PERICENTER":"65.4589","EPOCH":"2022-08-25T06:58:36.833376","SEMIMAJOR_AXIS":"6925.390","PERIAPSIS":"546.002","SITE":"AFETR","LAUNCH_DATE":"2021-05-09","DECAY_DATE":null,"ECCENTRICITY":"0.00018090","APOAPSIS":"548.508","MEAN_ELEMENT_THEORY":"SGP4","OBJECT_NAME":"STARLINK-2658","NORAD_CAT_ID":"48473","PERIOD":"95.593","OBJECT_ID":"2021-040AX","MEAN_ANOMALY":"294.6588","CLASSIFICATION_TYPE":"U","RCS_SIZE":"LARGE","MEAN_MOTION_DDOT":"0.0000000000000","EPHEMERIS_TYPE":"0","MEAN_MOTION_DOT":"-0.00001841","BSTAR":"-0.00010478000000"},{"OBJECT_NAME":"STARLINK-2697","MEAN_ELEMENT_THEORY":"SGP4","PERIOD":"95.596","NORAD_CAT_ID":"48474","LAUNCH_DATE":"2021-05-09","PERIAPSIS":"546.262","SITE":"AFETR","APOAPSIS":"548.499","ECCENTRICITY":"0.00016150","DECAY_DATE":null,"MEAN_MOTION_DDOT":"0.0000000000000","RCS_SIZE":"LARGE","MEAN_MOTION_DOT":"-0.00009864","BSTAR":"-0.00064519000000","EPHEMERIS_TYPE":"0","MEAN_ANOMALY":"320.3778","OBJECT_ID":"2021-040AY","CLASSIFICATION_TYPE":"U","REV_AT_EPOCH":"7168","TLE_LINE2":"2 48474  53.0527 233.5871 0001615  39.7329 320.3778 15.06345529 71688","REF_FRAME":"TEME","INCLINATION":"53.0527","RA_OF_ASC_NODE":"233.5871","TLE_LINE1":"1 48474U 21040AY  22237.25757962 -.00009864  00000-0 -64519-3 0  9990","GP_ID":"210972076","FILE":"3547226","ARG_OF_PERICENTER":"39.7329","EPOCH":"2022-08-25T06:10:54.879168","MEAN_MOTION":"15.06345529","SEMIMAJOR_AXIS":"6925.516","ELEMENT_SET_NO":"999","COUNTRY_CODE":"US","OBJECT_TYPE":"PAYLOAD","TIME_SYSTEM":"UTC","CENTER_NAME":"EARTH"},{"ELEMENT_SET_NO":"999","COUNTRY_CODE":"US","OBJECT_TYPE":"PAYLOAD","TIME_SYSTEM":"UTC","CENTER_NAME":"EARTH","ARG_OF_PERICENTER":"58.1871","EPOCH":"2022-08-25T08:39:26.830080","MEAN_MOTION":"15.06390905","SEMIMAJOR_AXIS":"6925.376","REF_FRAME":"TEME","RA_OF_ASC_NODE":"233.1206","INCLINATION":"53.0543","TLE_LINE1":"1 48475U 21040AZ  22237.36072720  .00000930  00000-0  81364-4 0  9996","GP_ID":"210970824","FILE":"3547226","REV_AT_EPOCH":"7170","TLE_LINE2":"2 48475  53.0543 233.1206 0001679  58.1871 301.9281 15.06390905 71707","MEAN_ANOMALY":"301.9281","OBJECT_ID":"2021-040AZ","CLASSIFICATION_TYPE":"U","MEAN_MOTION_DDOT":"0.0000000000000","RCS_SIZE":"LARGE","MEAN_MOTION_DOT":"0.00000930","BSTAR":"0.00008136400000","EPHEMERIS_TYPE":"0","LAUNCH_DATE":"2021-05-09","SITE":"AFETR","PERIAPSIS":"546.079","ECCENTRICITY":"0.00016790","APOAPSIS":"548.404","DECAY_DATE":null,"OBJECT_NAME":"STARLINK-2619","MEAN_ELEMENT_THEORY":"SGP4","PERIOD":"95.593","NORAD_CAT_ID":"48475"}];
